[{"OBJECT_NAME":"KUIPER-00075","OBJECT_ID":"2025-151G","EPOCH":"2026-03-09T15:30:47.554272","MEAN_MOTION":15.41855239,"ECCENTRICITY":0.0003756,"INCLINATION":51.87,"RA_OF_ASC_NODE":221.9898,"ARG_OF_PERICENTER":280.3148,"MEAN_ANOMALY":79.7417,"EPHEMERIS_TYPE":0,"CLASSIFICATION_TYPE":"U","NORAD_CAT_ID":64822,"ELEMENT_SET_NO":999,"REV_AT_EPOCH":3639,"BSTAR":0.00059995,"MEAN_MOTION_DOT":0.00025547,"MEAN_MOTION_DDOT":0},{"OBJECT_NAME":"CZ-2D R\/B","OBJECT_ID":"2024-063B","EPOCH":"2026-03-09T22:08:29.172768","MEAN_MOTION":15.39085944,"ECCENTRICITY":0.00172316,"INCLINATION":34.7246,"RA_OF_ASC_NODE":338.1662,"ARG_OF_PERICENTER":261.5026,"MEAN_ANOMALY":98.3736,"EPHEMERIS_TYPE":0,"CLASSIFICATION_TYPE":"U","NORAD_CAT_ID":59396,"ELEMENT_SET_NO":999,"REV_AT_EPOCH":10807,"BSTAR":0.00044754808,"MEAN_MOTION_DOT":0.00017924,"MEAN_MOTION_DDOT":0}]
